NORAD_CAT_ID,OBJECT_NAME,OBJECT_TYPE,EPOCH,MEAN_MOTION,ECCENTRICITY,INCLINATION,RA_OF_ASC_NODE,ARG_OF_PERICENTER,MEAN_ANOMALY,BSTAR,MEAN_MOTION_DOT,MEAN_MOTION_DDOT,TLE_LINE0,TLE_LINE1,TLE_LINE2,SEMIMAJOR_AXIS,PERIOD,APOGEE,PERIGEE,DECAYED
51807.0,STARLINK-3606,PAYLOAD,2022-09-24 10:25:55,15.08836819,0.0002714,53.2164,245.6162,43.2084,316.9121,6.4908e-05,7.45e-06,0.0,0 STARLINK-3606,1 51807U 22017AR  22267.43466934  .00000745  00000-0  64908-4 0  9998,2 51807  53.2164 245.6162 0002714  43.2084 316.9121 15.08836819 33553,6917.89,95.438,541.633,537.878,0.0
51807.0,STARLINK-3606,PAYLOAD,2022-09-25 02:19:45,15.08848884,0.0002611,53.2167,242.6411,48.2816,311.84,0.00014309,1.99e-05,0.0,0 STARLINK-3606,1 51807U 22017AR  22268.09705871  .00001990  00000-0  14309-3 0  9999,2 51807  53.2167 242.6411 0002611  48.2816 311.8400 15.08848884 33654,6917.853,95.437,541.524,537.9119999999998,0.0
51807.0,STARLINK-3606,PAYLOAD,2022-09-25 10:16:42,15.08840071,0.0002686999999999,53.2165,241.1561,42.6176,317.5025,1.4255e-05,-6.2e-07,0.0,0 STARLINK-3606,1 51807U 22017AR  22268.42826763 -.00000062  00000-0  14255-4 0  9991,2 51807  53.2165 241.1561 0002687  42.6176 317.5025 15.08840071 33704,6917.88,95.438,541.604,537.886,0.0
51807.0,STARLINK-3606,PAYLOAD,2022-09-26 02:10:34,15.08833737,0.0002788,53.2167,238.1833,42.1312,317.9894,-4.2424e-06,-3.56e-06,0.0,0 STARLINK-3606,1 51807U 22017AR  22269.09067444 -.00000356  00000-0 -42424-5 0  9995,2 51807  53.2167 238.1833 0002788  42.1312 317.9894 15.08833737 33803,6917.9,95.438,541.693,537.836,0.0
51807.0,STARLINK-3606,PAYLOAD,2022-09-26 08:32:06,15.08834437,0.0002755,53.2166,236.9935,42.8752,317.2454,3.5952e-06,-2.31e-06,0.0,0 STARLINK-3606,1 51807U 22017AR  22269.35563467 -.00000231  00000-0  35952-5 0  9999,2 51807  53.2166 236.9935 0002755  42.8752 317.2454 15.08834437 33847,6917.897,95.438,541.668,537.857,0.0
51807.0,STARLINK-3606,PAYLOAD,2022-09-26 14:53:39,15.08838908,0.000279,53.2168,235.8038,43.301,316.8201,3.474e-05,2.64e-06,0.0,0 STARLINK-3606,1 51807U 22017AR  22269.62059177  .00000264  00000-0  34740-4 0  9995,2 51807  53.2168 235.8038 0002790  43.3010 316.8201 15.08838908 33889,6917.884,95.438,541.679,537.819,0.0
51807.0,STARLINK-3606,PAYLOAD,2022-09-27 02:01:20,15.08845251,0.0002671,53.2176,233.722,49.4635,310.6589,4.684600000000001e-05,4.57e-06,0.0,0 STARLINK-3606,1 51807U 22017AR  22270.08426601  .00000457  00000-0  46846-4 0  9991,2 51807  53.2176 233.7220 0002671  49.4635 310.6589 15.08845251 33954,6917.864000000001,95.437,541.577,537.882,0.0
51807.0,STARLINK-3606,PAYLOAD,2022-09-27 09:58:16,15.08847072,0.0002501999999999,53.2176,232.2348,36.665,323.4513,-7.4197e-05,-1.469e-05,0.0,0 STARLINK-3606,1 51807U 22017AR  22270.41546736 -.00001469  00000-0 -74197-4 0  9996,2 51807  53.2176 232.2348 0002502  36.6650 323.4513 15.08847072 34006,6917.859,95.437,541.455,537.993,0.0
51807.0,STARLINK-3606,PAYLOAD,2022-09-27 14:44:25,15.08842028,0.0002358,53.2172,231.3434,37.7229,322.3928,6.3704e-05,7.26e-06,0.0,0 STARLINK-3606,1 51807U 22017AR  22270.61418647  .00000726  00000-0  63704-4 0  9992,2 51807  53.2172 231.3434 0002358  37.7229 322.3928 15.08842028 34038,6917.874,95.437,541.37,538.1080000000002,0.0
51807.0,STARLINK-3606,PAYLOAD,2022-09-28 06:38:17,15.08834835,0.0002340999999999,53.216,228.3703,41.9301,318.187,5.6068e-05,6.04e-06,0.0,0 STARLINK-3606,1 51807U 22017AR  22271.27659406  .00000604  00000-0  56068-4 0  9995,2 51807  53.2160 228.3703 0002341  41.9301 318.1870 15.08834835 34137,6917.896,95.438,541.381,538.1419999999998,0.0
51807.0,STARLINK-3606,PAYLOAD,2022-09-28 20:56:46,15.08836679,0.0002441999999999,53.2161,225.6939,42.7317,317.3865,2.8752e-05,1.69e-06,0.0,0 STARLINK-3606,1 51807U 22017AR  22271.87275556  .00000169  00000-0  28752-4 0  9996,2 51807  53.2161 225.6939 0002442  42.7317 317.3865 15.08836679 34220,6917.891,95.438,541.445,538.066,0.0
51807.0,STARLINK-3606,PAYLOAD,2022-09-29 06:29:06,15.08822392,0.0002491,53.2161,223.9098,40.3045,319.8131,-3.7667e-05,-8.88e-06,0.0,0 STARLINK-3606,1 51807U 22017AR  22272.27020878 -.00000888  00000-0 -37667-4 0  9991,2 51807  53.2161 223.9098 0002491  40.3045 319.8131 15.08822392 34289,6917.934,95.439,541.5219999999998,538.076,0.0
51807.0,STARLINK-3606,PAYLOAD,2022-09-30 03:09:06,15.08830183,0.000251,53.2168,220.0434,44.1564,315.9628,6.1689e-05,6.93e-06,0.0,0 STARLINK-3606,1 51807U 22017AR  22273.13132846  .00000693  00000-0  61689-4 0  9999,2 51807  53.2168 220.0434 0002510  44.1564 315.9628 15.08830183 34418,6917.91,95.438,541.512,538.039,0.0
51807.0,STARLINK-3606,PAYLOAD,2022-09-30 06:19:52,15.0883304,0.0002463999999999,53.2165,219.4484,44.1503,315.9686,7.769600000000001e-05,9.48e-06,0.0,0 STARLINK-3606,1 51807U 22017AR  22273.26380727  .00000948  00000-0  77696-4 0  9994,2 51807  53.2165 219.4484 0002464  44.1503 315.9686 15.08833040 34434,6917.901999999999,95.438,541.471,538.062,0.0
51807.0,STARLINK-3606,PAYLOAD,2022-10-01 02:59:52,15.08852343,0.0002452,53.2169,215.5826,44.6885,315.4304,0.00026311,3.903e-05,0.0,0 STARLINK-3606,1 51807U 22017AR  22274.12491255  .00003903  00000-0  26311-3 0  9990,2 51807  53.2169 215.5826 0002452  44.6885 315.4304 15.08852343 34563,6917.843000000003,95.437,541.404,538.011,0.0
51807.0,STARLINK-3606,PAYLOAD,2022-10-01 06:10:39,15.08849753,0.0002545,53.2166,214.9891,43.0257,317.0934,0.00031785,4.775e-05,0.0,0 STARLINK-3606,1 51807U 22017AR  22274.25739994  .00004775  00000-0  31785-3 0  9998,2 51807  53.2166 214.9891 0002545  43.0257 317.0934 15.08849753 34584,6917.851,95.437,541.476,537.955,0.0
51807.0,STARLINK-3606,PAYLOAD,2022-10-02 02:50:40,15.08844535,0.0002415,53.2156,211.1219,41.9554,318.1623,5.3129e-05,5.57e-06,0.0,0 STARLINK-3606,1 51807U 22017AR  22275.11851862  .00000557  00000-0  53129-4 0  9994,2 51807  53.2156 211.1219 0002415  41.9554 318.1623 15.08844535 34714,6917.8669999999975,95.437,541.4019999999998,538.061,0.0
51807.0,STARLINK-3606,PAYLOAD,2022-10-02 12:22:59,15.08834721,0.0002348,53.2178,209.33900000000003,42.0802,318.0371,-5.9395e-05,-1.233e-05,0.0,0 STARLINK-3606,1 51807U 22017AR  22275.51596926 -.00001233  00000-0 -59395-4 0  9990,2 51807  53.2178 209.3390 0002348  42.0802 318.0371 15.08834721 34771,6917.897,95.438,541.386,538.137,0.0
51807.0,STARLINK-3606,PAYLOAD,2022-10-02 20:19:54,15.08846019,0.0002452,53.2161,207.8478,35.7895,324.3261,-3.1924e-05,-7.97e-06,0.0,0 STARLINK-3606,1 51807U 22017AR  22275.84716041 -.00000797  00000-0 -31924-4 0  9990,2 51807  53.2161 207.8478 0002452  35.7895 324.3261 15.08846019 34827,6917.861999999999,95.437,541.423,538.031,0.0
51807.0,STARLINK-3606,PAYLOAD,2022-10-03 02:41:26,15.08862806,0.0002364,53.2158,206.6624,43.0645,317.0532,0.00010319,1.355e-05,0.0,0 STARLINK-3606,1 51807U 22017AR  22276.11210718  .00001355  00000-0  10319-3 0  9994,2 51807  53.2158 206.6624 0002364  43.0645 317.0532 15.08862806 34866,6917.811,95.436,541.311,538.04,0.0
51807.0,STARLINK-3606,PAYLOAD,2022-10-03 07:27:35,15.08850606,0.0002432,53.2157,205.7704,40.446,319.6713,0.00014797,2.068e-05,0.0,0 STARLINK-3606,1 51807U 22017AR  22276.31083196  .00002068  00000-0  14797-3 0  9990,2 51807  53.2157 205.7704 0002432  40.4460 319.6713 15.08850606 34893,6917.848000000001,95.437,541.395,538.031,0.0
51807.0,STARLINK-3606,PAYLOAD,2022-10-03 12:13:45,15.08855139,0.0002384999999999,53.2153,204.8782,39.5463,320.5703,0.00025905,3.839e-05,0.0,0 STARLINK-3606,1 51807U 22017AR  22276.50954910  .00003839  00000-0  25905-3 0  9992,2 51807  53.2153 204.8782 0002385  39.5463 320.5703 15.08855139 34924,6917.834,95.437,541.349,538.049,0.0
51807.0,STARLINK-3606,PAYLOAD,2022-10-04 12:04:31,15.08856415,0.0002230999999999,53.2156,200.4185,39.2574,320.8579,0.00031489,4.729e-05,0.0,0 STARLINK-3606,1 51807U 22017AR  22277.50314268  .00004729  00000-0  31489-3 0  9992,2 51807  53.2156 200.4185 0002231  39.2574 320.8579 15.08856415 35075,6917.83,95.437,541.239,538.1519999999998,0.0
51807.0,STARLINK-3606,PAYLOAD,2022-10-05 02:23:00,15.08835836,0.0001972,53.2154,197.7418,36.0313,324.0812,-0.00017063,-3.002e-05,0.0,0 STARLINK-3606,1 51807U 22017AR  22278.09930716 -.00003002  00000-0 -17063-3 0  9996,2 51807  53.2154 197.7418 0001972  36.0313 324.0812 15.08835836 35167,6917.893,95.438,541.122,538.394,0.0
51807.0,STARLINK-3606,PAYLOAD,2022-10-05 11:55:19,15.08834758,0.0001996999999999,53.2153,195.956,35.4738,324.6386,-2.8242e-05,-7.38e-06,0.0,0 STARLINK-3606,1 51807U 22017AR  22278.49674941 -.00000738  00000-0 -28242-4 0  9990,2 51807  53.2153 195.9560 0001997  35.4738 324.6386 15.08834758 35226,6917.896,95.438,541.143,538.38,0.0
51807.0,STARLINK-3606,PAYLOAD,2022-10-05 18:16:52,15.08831788,0.0002293,53.2148,194.7685,36.9581,323.1568,-1.2106e-05,-4.81e-06,0.0,0 STARLINK-3606,1 51807U 22017AR  22278.76171309 -.00000481  00000-0 -12106-4 0  9997,2 51807  53.2148 194.7685 0002293  36.9581 323.1568 15.08831788 35267,6917.905,95.438,541.357,538.184,0.0
51807.0,STARLINK-3606,PAYLOAD,2022-10-06 03:49:11,15.08827132,0.0002109,53.2158,192.9836,34.5477,325.5652,5.1458e-05,5.31e-06,0.0,0 STARLINK-3606,1 51807U 22017AR  22279.15915965  .00000531  00000-0  51458-4 0  9992,2 51807  53.2158 192.9836 0002109  34.5477 325.5652 15.08827132 35325,6917.92,95.438,541.244,538.326,0.0
51807.0,STARLINK-3606,PAYLOAD,2022-10-07 05:15:21,15.08835824,0.0002207,53.2164,188.2261,35.2069,324.9069,0.00023706,3.486e-05,0.0,0 STARLINK-3606,1 51807U 22017AR  22280.21900218  .00003486  00000-0  23706-3 0  9992,2 51807  53.2164 188.2261 0002207  35.2069 324.9069 15.08835824 35485,6917.893,95.438,541.285,538.231,0.0
51807.0,STARLINK-3606,PAYLOAD,2022-10-07 11:36:53,15.08847797,0.000215,53.2161,187.0373,33.235,326.8777,0.00033449,5.04e-05,0.0,0 STARLINK-3606,1 51807U 22017AR  22280.48395643  .00005040  00000-0  33449-3 0  9994,2 51807  53.2161 187.0373 0002150  33.2350 326.8777 15.08847797 35525,6917.857,95.437,541.2090000000002,538.234,0.0
